ONEWEB-0589             
1 54655U 22166P   24295.21496298  .00000156  00000+0  34659-3 0  9996
2 54655  87.9357   4.2800 0001580 130.6270 229.5002 13.21828323 91758
ONEWEB-0590             
1 54656U 22166Q   24296.14697872  .00000110  00000+0  23473-3 0  9993
2 54656  87.9344   4.1077 0001669  96.7332 263.3992 13.21828012 92322
ONEWEB-0591             
1 54657U 22166R   24296.15959103  .00000126  00000+0  27468-3 0  9998
2 54657  87.9354   4.0944 0001779 104.0998 256.0333 13.21823759 92353
ONEWEB-0592             
1 54658U 22166S   24296.16275987  .00000034  00000+0  51218-4 0  9990
2 54658  87.9356   4.0548 0001664 101.5880 258.5440 13.21825639 92244
ONEWEB-0593             
1 54659U 22166T   24295.20235037  .00000126  00000+0  27336-3 0  9992
2 54659  87.9358   4.2755 0001702 107.0248 253.1073 13.21825935 91758
ONEWEB-0594             
1 54660U 22166U   24295.22127510 -.00000075  00000+0 -21258-3 0  9994
2 54660  87.9362   4.2762 0001880 100.3750 259.7595 13.21823817 91774
ONEWEB-0595             
1 54661U 22166V   24296.18325455 -.00000035  00000+0 -11538-3 0  9995
2 54661  87.9362   4.0698 0001790  89.5029 270.6310 13.21824108 92343
ONEWEB-0596             
1 54662U 22166W   24295.17240023 -.00000007  00000+0 -48361-4 0  9995
2 54662  87.9361   4.2781 0001564 101.5307 258.6002 13.21827119 91743
